{"type": "FeatureCollection", "features": [ {"type": "Feature", "properties": {"norad_id": 66564, "name": "STARLINK-35358", "group": "last-30-days", "lat": 26.072335432933542, "lon": -154.3015032504326, "alt_km": 394.59906846782997, "timestamp": "2025-12-23T14:49:07.961251+00:00", "meta": {"OBJECT_NAME": "STARLINK-35358", "OBJECT_ID": "2025-268H", "EPOCH": "2025-12-23T08:00:03.000384", "MEAN_MOTION": 15.5644936, "ECCENTRICITY": 0.00014697, "INCLINATION": 43.0001, "RA_OF_ASC_NODE": 59.049, "ARG_OF_PERICENTER": 272.1212, "MEAN_ANOMALY": 73.9952, "EPHEMERIS_TYPE": 0, "CLASSIFICATION_TYPE": "U", "NORAD_CAT_ID": 66564, "ELEMENT_SET_NO": 999, "REV_AT_EPOCH": 610, "BSTAR": -0.00084110116, "MEAN_MOTION_DOT": -0.00061005, "MEAN_MOTION_DDOT": 0}, "tle": {"line1": "1 66564U 25268H   25357.33336806 -.00061005  00000+0 -84110-3 0  9994", "line2": "2 66564  43.0001  59.0490 0001469 272.1212  73.9952 15.56449360  6106"}}, "geometry": {"type": "Point", "coordinates": [-154.3015032504326, 26.072335432933542]}}, {"type": "Feature", "properties": {"norad_id": 66565, "name": "STARLINK-35893", "group": "last-30-days", "lat": 24.947590434043022, "lon": -152.5804401203141, "alt_km": 394.7656324454829, "timestamp": "2025-12-23T14:49:07.961271+00:00", "meta": {"OBJECT_NAME": "STARLINK-35893", "OBJECT_ID": "2025-268J", "EPOCH": "2025-12-23T08:00:03.000384", "MEAN_MOTION": 15.56443545, "ECCENTRICITY": 0.00015059, "INCLINATION": 43.0003, "RA_OF_ASC_NODE": 59.0443, "ARG_OF_PERICENTER": 272.4026, "MEAN_ANOMALY": 75.6348, "EPHEMERIS_TYPE": 0, "CLASSIFICATION_TYPE": "U", "NORAD_CAT_ID": 66565, "ELEMENT_SET_NO": 999, "REV_AT_EPOCH": 610, "BSTAR": -0.0006098936, "MEAN_MOTION_DOT": -0.00044419, "MEAN_MOTION_DDOT": 0}, "tle": {"line1": "1 66565U 25268J   25357.33336806 -.00044419  00000+0 -60989-3 0  9993", "line2": "2 66565  43.0003  59.0443 0001505 272.4026  75.6348 15.56443545  6101"}}, "geometry": {"type": "Point", "coordinates": [-152.5804401203141, 24.947590434043022]}}, {"type": "Feature", "properties": {"norad_id": 66566, "name": "STARLINK-35871", "group": "last-30-days", "lat": 23.80194765150351, "lon": -150.88925881344775, "alt_km": 394.83119549906223, "timestamp": "2025-12-23T14:49:07.961289+00:00", "meta": {"OBJECT_NAME": "STARLINK-35871", "OBJECT_ID": "2025-268K", "EPOCH": "2025-12-23T08:00:03.000384", "MEAN_MOTION": 15.56476728, "ECCENTRICITY": 0.00014386, "INCLINATION": 43.0001, "RA_OF_ASC_NODE": 59.0397, "ARG_OF_PERICENTER": 265.2034, "MEAN_ANOMALY": 84.7451, "EPHEMERIS_TYPE": 0, "CLASSIFICATION_TYPE": "U", "NORAD_CAT_ID": 66566, "ELEMENT_SET_NO": 999, "REV_AT_EPOCH": 610, "BSTAR": -0.0016903024, "MEAN_MOTION_DOT": -0.00121432, "MEAN_MOTION_DDOT": 0}, "tle": {"line1": "1 66566U 25268K   25357.33336806 -.00121432  00000+0 -16903-2 0  9991", "line2": "2 66566  43.0001  59.0397 0001438 265.2034  84.7451 15.56476728  6107"}}, "geometry": {"type": "Point", "coordinates": [-150.88925881344775, 23.80194765150351]}}, {"type": "Feature", "properties": {"norad_id": 66567, "name": "STARLINK-35825", "group": "last-30-days", "lat": 22.643271751798906, "lon": -149.23504066623764, "alt_km": 395.03370571177766, "timestamp": "2025-12-23T14:49:07.961307+00:00", "meta": {"OBJECT_NAME": "STARLINK-35825", "OBJECT_ID": "2025-268L", "EPOCH": "2025-12-23T08:00:03.000384", "MEAN_MOTION": 15.56452252, "ECCENTRICITY": 0.00012412, "INCLINATION": 43.0002, "RA_OF_ASC_NODE": 59.0349, "ARG_OF_PERICENTER": 269.9075, "MEAN_ANOMALY": 81.9742, "EPHEMERIS_TYPE": 0, "CLASSIFICATION_TYPE": "U", "NORAD_CAT_ID": 66567, "ELEMENT_SET_NO": 999, "REV_AT_EPOCH": 610, "BSTAR": -0.0015621819, "MEAN_MOTION_DOT": -0.00112279, "MEAN_MOTION_DDOT": 0}, "tle": {"line1": "1 66567U 25268L   25357.33336806 -.00112279  00000+0 -15622-2 0  9998", "line2": "2 66567  43.0002  59.0349 0001241 269.9075  81.9742 15.56452252  6102"}}, "geometry": {"type": "Point", "coordinates": [-149.23504066623764, 22.643271751798906]}}, {"type": "Feature", "properties": {"norad_id": 66568, "name": "STARLINK-35803", "group": "last-30-days", "lat": 34.216765888814095, "lon": -169.45918554739401, "alt_km": 393.2770949663063, "timestamp": "2025-12-23T14:49:07.961325+00:00", "meta": {"OBJECT_NAME": "STARLINK-35803", "OBJECT_ID": "2025-268M", "EPOCH": "2025-12-23T08:00:03.000384", "MEAN_MOTION": 15.56339802, "ECCENTRICITY": 0.00011404, "INCLINATION": 43.0002, "RA_OF_ASC_NODE": 59.0836, "ARG_OF_PERICENTER": 262.2957, "MEAN_ANOMALY": 68.4783, "EPHEMERIS_TYPE": 0, "CLASSIFICATION_TYPE": "U", "NORAD_CAT_ID": 66568, "ELEMENT_SET_NO": 999, "REV_AT_EPOCH": 610, "BSTAR": 0.000958764, "MEAN_MOTION_DOT": 0.00069609, "MEAN_MOTION_DDOT": 0}, "tle": {"line1": "1 66568U 25268M   25357.33336806  .00069609  00000+0  95876-3 0  9995", "line2": "2 66568  43.0002  59.0836 0001140 262.2957  68.4783 15.56339802  6107"}}, "geometry": {"type": "Point", "coordinates": [-169.45918554739401, 34.216765888814095]}}, {"type": "Feature", "properties": {"norad_id": 66569, "name": "STARLINK-35835", "group": "last-30-days", "lat": 20.268951328951538, "lon": -145.9992351118658, "alt_km": 395.4971689232452, "timestamp": "2025-12-23T14:49:07.961343+00:00", "meta": {"OBJECT_NAME": "STARLINK-35835", "OBJECT_ID": "2025-268N", "EPOCH": "2025-12-23T08:00:03.000384", "MEAN_MOTION": 15.5648556, "ECCENTRICITY": 0.00015297, "INCLINATION": 43.0002, "RA_OF_ASC_NODE": 59.0248, "ARG_OF_PERICENTER": 273.5027, "MEAN_ANOMALY": 82.1982, "EPHEMERIS_TYPE": 0, "CLASSIFICATION_TYPE": "U", "NORAD_CAT_ID": 66569, "ELEMENT_SET_NO": 999, "REV_AT_EPOCH": 610, "BSTAR": -0.0021224769, "MEAN_MOTION_DOT": -0.00151861, "MEAN_MOTION_DDOT": 0}, "tle": {"line1": "1 66569U 25268N   25357.33336806 -.00151861  00000+0 -21225-2 0  9996", "line2": "2 66569  43.0002  59.0248 0001529 273.5027  82.1982 15.56485560  6106"}}, "geometry": {"type": "Point", "coordinates": [-145.9992351118658, 20.268951328951538]}}, {"type": "Feature", "properties": {"norad_id": 66570, "name": "STARLINK-35834", "group": "last-30-days", "lat": 40.43668217242125, "lon": 171.31173643118882, "alt_km": 422.8179649675958, "timestamp": "2025-12-23T14:49:07.961360+00:00", "meta": {"OBJECT_NAME": "STARLINK-35834", "OBJECT_ID": "2025-268P", "EPOCH": "2025-12-23T08:00:03.000384", "MEAN_MOTION": 15.47276071, "ECCENTRICITY": 0.00013305, "INCLINATION": 42.9995, "RA_OF_ASC_NODE": 59.1001, "ARG_OF_PERICENTER": 262.3412, "MEAN_ANOMALY": 61.9171, "EPHEMERIS_TYPE": 0, "CLASSIFICATION_TYPE": "U", "NORAD_CAT_ID": 66570, "ELEMENT_SET_NO": 999, "REV_AT_EPOCH": 610, "BSTAR": -0.043087612, "MEAN_MOTION_DOT": -0.02007287, "MEAN_MOTION_DDOT": 0}, "tle": {"line1": "1 66570U 25268P   25357.33336806 -.02007287  00000+0 -43088-1 0  9992", "line2": "2 66570  42.9995  59.1001 0001330 262.3412  61.9171 15.47276071  6109"}}, "geometry": {"type": "Point", "coordinates": [171.31173643118882, 40.43668217242125]}}, {"type": "Feature", "properties": {"norad_id": 66571, "name": "STARLINK-35836", "group": "last-30-days", "lat": 37.57860623244643, "lon": -178.24084347266523, "alt_km": 420.8460739475422, "timestamp": "2025-12-23T14:49:07.961378+00:00", "meta": {"OBJECT_NAME": "STARLINK-35836", "OBJECT_ID": "2025-268Q", "EPOCH": "2025-12-23T08:00:03.000384", "MEAN_MOTION": 15.48126566, "ECCENTRICITY": 0.00012847, "INCLINATION": 42.9997, "RA_OF_ASC_NODE": 59.0826, "ARG_OF_PERICENTER": 267.4751, "MEAN_ANOMALY": 64.537, "EPHEMERIS_TYPE": 0, "CLASSIFICATION_TYPE": "U", "NORAD_CAT_ID": 66571, "ELEMENT_SET_NO": 999, "REV_AT_EPOCH": 611, "BSTAR": -0.043301375, "MEAN_MOTION_DOT": -0.02070606, "MEAN_MOTION_DDOT": 0}, "tle": {"line1": "1 66571U 25268Q   25357.33336806 -.02070606  00000+0 -43301-1 0  9996", "line2": "2 66571  42.9997  59.0826 0001284 267.4751  64.5370 15.48126566  6111"}}, "geometry": {"type": "Point", "coordinates": [-178.24084347266523, 37.57860623244643]}}, {"type": "Feature", "properties": {"norad_id": 66572, "name": "STARLINK-35870", "group": "last-30-days", "lat": 32.11556421775567, "lon": -164.94487693243133, "alt_km": 417.3458011242392, "timestamp": "2025-12-23T14:49:07.961396+00:00", "meta": {"OBJECT_NAME": "STARLINK-35870", "OBJECT_ID": "2025-268R", "EPOCH": "2025-12-23T08:00:03.000384", "MEAN_MOTION": 15.49578866, "ECCENTRICITY": 0.00012399, "INCLINATION": 43, "RA_OF_ASC_NODE": 59.0572, "ARG_OF_PERICENTER": 269.1439, "MEAN_ANOMALY": 73.5755, "EPHEMERIS_TYPE": 0, "CLASSIFICATION_TYPE": "U", "NORAD_CAT_ID": 66572, "ELEMENT_SET_NO": 999, "REV_AT_EPOCH": 611, "BSTAR": -0.041237517, "MEAN_MOTION_DOT": -0.02075595, "MEAN_MOTION_DDOT": 0}, "tle": {"line1": "1 66572U 25268R   25357.33336806 -.02075595  00000+0 -41238-1 0  9996", "line2": "2 66572  43.0000  59.0572 0001239 269.1439  73.5755 15.49578866  6111"}}, "geometry": {"type": "Point", "coordinates": [-164.94487693243133, 32.11556421775567]}}, {"type": "Feature", "properties": {"norad_id": 66573, "name": "STARLINK-35650", "group": "last-30-days", "lat": 28.35454772993913, "lon": -158.00846514278604, "alt_km": 415.3160406453071, "timestamp": "2025-12-23T14:49:07.961414+00:00", "meta": {"OBJECT_NAME": "STARLINK-35650", "OBJECT_ID": "2025-268S", "EPOCH": "2025-12-23T08:00:03.000384", "MEAN_MOTION": 15.5041165, "ECCENTRICITY": 0.00013413, "INCLINATION": 43.0004, "RA_OF_ASC_NODE": 59.0412, "ARG_OF_PERICENTER": 259.1307, "MEAN_ANOMALY": 89.8147, "EPHEMERIS_TYPE": 0, "CLASSIFICATION_TYPE": "U", "NORAD_CAT_ID": 66573, "ELEMENT_SET_NO": 999, "REV_AT_EPOCH": 611, "BSTAR": -0.039894207, "MEAN_MOTION_DOT": -0.02069565, "MEAN_MOTION_DDOT": 0}, "tle": {"line1": "1 66573U 25268S   25357.33336806 -.02069565  00000+0 -39894-1 0  9992", "line2": "2 66573  43.0004  59.0412 0001341 259.1307  89.8147 15.50411650  6110"}}, "geometry": {"type": "Point", "coordinates": [-158.00846514278604, 28.35454772993913]}}]}